NAME,TEL,ADDRESS,ZIP,LAT,LON
O'reilly William & Co Ltd,(212) 396-1822,52 E 76th St,10021,40.77380087,-73.96273075
Organization of Independent Artists - Gallery 402,(212) 219-9213,19 Hudson St.,10013,40.71646851,-74.00938579
Owen Gallery,(212) 879-2415,19 E 75th St,10021,40.77400085,-73.96435178
P P O W Gallerie,(212) 647-1044,511 W 25th St,10001,40.7495854,-74.00389261
P P O W Inc,(212) 941-8642,476 Broome St,10013,40.72290743,-74.0017639
P S 122 Gallery,(212) 228-4249,150 1st Ave,10009,40.72816774,-73.98437148
Pace Editions,(212) 645-9806,44 W 18th St,10011,40.73920195,-73.99437671
Pace MacGill Gallery,(212) 759-7999,32 E. 57th St.,10022,40.76194965,-73.97202175
Pace Prints & Primitive Gallery,(212) 421-3237,32 E. 57th St.,10022,40.76183647,-73.97211462
Pace Wildenstein,(212) 929-7000,534 W 25th St,10001,40.74944828,-74.00495118
Pace Wildenstein,(212) 421-3292,32 E 57th St,10022,40.76188607,-73.97207692
Paige's Art Gallery,(212) 531-1577,3163 Broadway,10027,40.8150007,-73.95927393
PaineWebber Gallery,(212) 713-2885,1285 Sixth Ave.,10019,40.76118894,-73.98058387
Paint Can Studios,(718) 937-7360,3608 34th St,11106,40.75515787,-73.92794008
Paley Barbara K,(212) 333-4747,1776 Broadway,10019,40.76637002,-73.98148007
Pall William Inc,(212) 758-3340,188 E 64th St,10021,40.76450874,-73.96481234
Palmer Meredith Gallery,(212) 828-9100,40 E 94th St,10128,40.78563342,-73.95482249
Pandora Old Masters,(212) 628-1974,212 E 70th St,10021,40.76789235,-73.96081641
Pardo Sheenan Galleries Ltd,(646) 935-0837,121 E 31st St,10016,40.7448961,-73.98156102
Parker's Box,(718) 388-2882,193 Grand St,11211,40.71430916,-73.96044471
Parsons Galleries,(212) 229-8987,2 W. 13th St.,10011,40.73539495,-73.99478186
Patricia Laligant Photographs,(212) 252-9922,150 W 28th St,10001,40.74676021,-73.99282055
Patrick's Gallery,(212) 741-7453,220 W 19th St,10011,40.74186878,-73.99851017
Paul Kasmin Gallery,(212) 563-4474,293 10th Ave,10001,40.75019275,-74.00272286
Paula Cooper Gallery,(212) 255-1105,534 W. 21st St.,10011,40.7469199,-74.00689773
Peck Ian Fine Paintings Ltd,(212) 396-2442,980 Madison Ave,10021,40.77476053,-73.96365013
Peder Bonnier Inc,(646) 638-0878,206 W 23rd St,10011,40.74405995,-73.99623914
Perimeter Gallery,(212) 675-1585,511 W 25th St,10001,40.74938125,-74.00389939
Perlow Rich Katharina Gallery Inc,(212) 644-7171,41 E 57th St,10022,40.76236541,-73.97163996
Peter L Villa Fine Art,(212) 371-1196,110 E 57th St,10022,40.7611697,-73.97029437
Peter Rose Gallery,(212) 759-8173,200 E 58th St,10022,40.76057555,-73.96690495
Peters Gerald Gallery,(212) 628-9760,24 E 78th St,10075,40.77566356,-73.96316937
Phoenix Design Ltd,(718) 423-3458,21415 41st Ave,11361,40.76366855,-73.77059062
Phoenix Gallery,(212) 226-8711,210 ELEVENTH AVENUE,10001,40.74977525,-74.00599167
Phoneup,(212) 219-8287,55 Chrystie St,10002,40.71651672,-73.99502605
Photo & Art Gallery,(718) 471-7840,1023 Beach 20th St,11691,40.6029621,-73.75339447
Photo Collection Gagliardi,(212) 229-1816,27 W 20th St,10011,40.74063767,-73.99269647
Photo District Gallery,(212) 807-8787,37 W 20th St,10011,40.74080485,-73.99310574
Phyllis Lucas Gallery Inc,(212) 755-1516,981 2nd Ave,10022,40.75614508,-73.96795086
Picture This Corporate Art,(718) 625-2722,249 Smith Street,11231,40.68324194,-73.9926035
Pierogi 2000,(718) 599-2144,177 N 9th St,11211,40.71875035,-73.9557816
Place Des Vosges,(212) 995-2899,816 Broadway,10003,40.73276122,-73.99094408
Plane Space,(917) 606-1268,102 Charles St,10014,40.73439963,-74.00518363
Plaster Palace,(718) 621-3175,5305 18th Ave,11204,40.62575957,-73.98315035
Plaza Holding Inc,(212) 247-4744,15 W 55th St,10019,40.76215882,-73.97575362
Plaza Holding Inc,(212) 956-1900,15 W 55th St,10019,40.76226036,-73.97568006
Plaza Watch & Jewelry Exchange,(212) 246-2000,145 W 57th St,10019,40.76526144,-73.97867414
Pleiades Gallery,(646) 230-0056,530 W 25th St,10001,40.74937493,-74.00477069
Plum Blossom Gallery,(212) 719-7008,555 W 25th St,10001,40.75017633,-74.00537358
Polizzi Fine Art,(718) 680-6777,7813 3rd Ave,11209,40.62887622,-74.02860202
Poller Leah,(212) 274-1704,98 Greene St,10012,40.72417671,-73.99973976
Portara Gallery,(718) 224-7093,4720A Bell Blvd,11361,40.75653978,-73.76753264
Portico Fine Art,(212) 941-8248,139 Spring St,10012,40.72425932,-74.00082666
Portrait Gallery,(718) 377-8762,5100 Kings Plz,11234,40.60993574,-73.92228135
Postmasters Gallery,(212) 727-3323,459 W 19th St,10011,40.74520243,-74.0053466
Praxis International Art,(212) 772-9478,25 E 73rd St,10021,40.77277684,-73.96513542
Prieto International Attorney In Fact Johnpoll,(212) 267-6790,127 Fulton St,10038,40.71024984,-74.00723565
Prince Street Gallery,(646) 230-0246,530 W 25th St,10001,40.7493379,-74.0046948
Professional Fine Arts Svces Inc,(646) 336-6613,141 W 20th St,10011,40.74191723,-73.9957317
Proposition the,(212) 242-0035,162 11th Ave,10011,40.7482054,-74.00714842
Public Art Fund,(212) 980-4575,1 E. 53d St.,10022,40.76037548,-73.97518754
Puerto Rican Work Shop Inc,(212) 534-7534,121 E 106th St,10029,40.79269985,-73.94672759
Pushman Gallery Inc,(212) 582-0130,154 W 57th St,10019,40.76499909,-73.97991308
Pytlak Art Studio,(718) 599-1265,573 Metropolitan Ave,11211,40.71427613,-73.94988527
Queen Art Publishers Inc,(212) 274-0237,481 Washington St,10013,40.72549195,-74.00979549
Questroyal Fine Art,(212) 744-3586,903 Park Ave,10021,40.7757238,-73.96001774
Rabenou Yris Ancient Arts,(212) 486-0661,249 E 61st St,10021,40.76222398,-73.9638362
Radio House Gallery,(212) 620-7630,601 W 26th St,10001,40.75178267,-74.00698523
Rafael Gallery,(212) 744-8666,241 E 59th St,10022,40.76106891,-73.96484847
Rainbow Fine Art Inc,(212) 585-2587,15 E 82nd St,10028,40.77866481,-73.96108478
Ralph Chait Galleries Inc,(212) 397-2818,724 5th Ave,10019,40.76269799,-73.97472467
Randel Gallery Inc,(212) 861-6650,49 East 78th Street,10021,40.77557044,-73.96194182
Randolph & Tate Assocs,(212) 595-6302,234 5th Ave,10001,40.74435684,-73.9880468
Raphael Fodde Editions,(718) 624-6048,70 WASHINGTON ST,11201,40.7020874,-73.98997736
Rare art Gallery,(212) 268-1520,521 W 26th St Bsmt,10001,40.75021573,-74.00368999
Raydon Gallery,(212) 288-3555,1091 Madison Ave,10001,40.77833721,-73.96032668
Red Dot,(212) 675-0448,140 W 22nd St,10011,40.74274458,-73.9950592
Reece Galleries Inc The,(212) 333-5830,24 W 57th St,10019,40.76335607,-73.97570996
Reeves Contemporary Inc,(212) 714-0044,535 W 24th St,10011,40.74928258,-74.00518821
Regina's Art Center,(718) 837-5807,1921 Benson Ave,11214,40.60337998,-74.00172859
Rehs Galleries Inc,(212) 355-5710,5 E 57th St,10022,40.762974,-73.97311044
Reinhold Brown Gallery,(212) 734-7999,1100 Madison Ave,10028,40.77864024,-73.96068894
Renaissance Gallery,(212) 234-0974,300 W 147th St,10039,40.82412358,-73.94134747
Resnick Ira Inc,(212) 223-1009,133 E 58th St,10022,40.76189453,-73.96881061
Ricco Maresca Gallery,(212) 627-4819,529 W 20th St,10011,40.74661225,-74.00684653
Richard Gray Gallery,(212) 472-8787,1018 Madison Ave,10021,40.77603512,-73.96268744
Richard Solomon,(212) 223-9545,305 E 50th St,10022,40.75490203,-73.96796822
Richard York Gallery,(212) 772-9155,21 E. 65th St.,10065,40.76764185,-73.96884242
Rienzo Gallery,(212) 288-2226,20 E 69th St,10021,40.7698308,-73.96715177
Ritter-Antik Inc,(212) 673-2213,35 E 10th St,10003,40.73250427,-73.99270194
Rivington Bar & Art Gallery,(212) 253-7703,174 Rivington St,10002,40.71908748,-73.98443866
Robert Lee Morris Inc,(212) 431-9405,400 W Broadway,10012,40.72440709,-74.00236651
Robert Mann Gallery,(212) 989-7600,210 11th Ave,10001,40.74974338,-74.00591124
Robert Miller Gallery Inc,(212) 366-4774,526 W 26th St,10001,40.74998086,-74.00423399
Robert Steele Gallery,(212) 243-0165,511 W 25th St,10001,40.74942346,-74.00398548
Robertson African Arts,(212) 206-0912,36 W 22nd St,10010,40.74150835,-73.99212377
Rogallerycom,(212) 732-6887,300 East 74th Street,10021,40.7697075,-73.95726809
Ronald Feldman Fine Arts,(212) 226-3232,31 Mercer St,10013,40.72116039,-74.00185591
Roosevelt Island Visual Arts Assoc,(212) 308-6630,527 Main St,10044,40.75359867,-73.9564351
Rosen Andrea Gallery Inc,(212) 627-6000,525 W 24th St,10011,40.74904372,-74.00493762
Rosenberg & Kaufman Fine Art,(212) 431-4838,115 Wooster St,10012,40.72502497,-74.00070941
Rosenberg Paul & Co,(212) 472-1134,20 E 79th St,10021,40.77623796,-73.96251599
Ross Luise Gallery,(212) 343-2161,511 West 25 Street,10001,40.74945792,-74.00391752
Roth,(212) 717-9067,160A E 70th St,10021,40.76883963,-73.96253716
Rotunda Gallery,(718) 875-4047,33 Clinton St,11201,40.69515734,-73.99146799
Royal Fine Art,(212) 452-4297,1158 Lexington Ave,10021,40.77550889,-73.95868741
Royal-Athena Galleries,(212) 355-2033,153 E 57th St,10022,40.76078611,-73.96804937
Rudolph De Paola Art Gallery,(718) 238-6026,6 Parrott Pl,11228,40.6179935,-74.02172407
Ruesch Jeffrey Fine Arts,(212) 925-1137,134 Spring St,10012,40.72382475,-74.00107131
Russeck Gallery,(212) 475-9939,478 W Broadway,10012,40.72679316,-74.00056532
Russian World,(212) 399-6500,18 W 55th St,10019,40.76192574,-73.97604749
S & A Art Gallery Inc,(212) 794-5251,1248 Lexington Ave,10028,40.77844643,-73.95658935
S 2 Editions Ltd,(212) 206-7345,155 Ave of the Americas,10013,40.72529481,-74.00479226
S E Art & Design Inc,(212) 980-1914,232 E 59th St,10022,40.76074545,-73.96523801
Sabarsky Serge Gallery,(212) 628-6281,58 E 79th St,10021,40.77589273,-73.96160397
Sabbatique Ltd,(212) 213-9344,10 Waterside Plz,10010,40.73684452,-73.97398004
Sabrina Enterprise.Com Artworks Sales and Rprdctns,(718) 335-5088,10022 32nd Ave,11369,40.75905864,-73.86790725
Sacks Fine Art,(212) 333-7755,229 East 60th Street,10022,40.76182789,-73.96475381
Safani Gallery Inc,(212) 570-6360,980 Madison Ave,10021,40.77483294,-73.96369841
Salz Trager Janet,(212) 744-6080,700 Park Ave,10021,40.76954041,-73.96550966
Sam's Souk,(212) 535-7210,979 Lexington Ave,10021,40.76945601,-73.96253151
Sanada Ikkanart Intl,(212) 734-3055,30 E 85th St,10028,40.78007652,-73.95977784
Sands & Company Inc Fine Art At Madison Av,(212) 988-3900,30 E 76th St,10021,40.7741378,-73.96342194
Sara Meltzer On View,(212) 343-8256,588 Broadway,10012,40.72470086,-73.99709363
Sarafina Inc,(718) 522-1083,411 Myrtle Ave,11205,40.69329479,-73.96937268
Sarajo Inc,(212) 966-6156,130 Greene St,10012,40.72527107,-73.99880177
Sarina Tang Fine Art,(212) 242-9001,535 W 23rd St,10011,40.74841076,-74.00525478
Savacou Galleries,(212) 473-6904,240 E 13th St,10003,40.73178218,-73.98626836
Sayn-Wittgenstein,(212) 288-1493,155 E 72nd St,10021,40.77036691,-73.96141027
Schellmann Editions,(212) 219-1821,210 11th Ave,10001,40.74982694,-74.00585462
Schickler Howard Fine Art,(212) 431-6363,100 Water St,11201,40.70287472,-73.98992302
Schillay Fine Art,(212) 861-8353,520 E 72nd St,10021,40.76613926,-73.95267538
Schiller & Bodo Fine Art,(212) 772-8627,120 E 65th St,10021,40.76612067,-73.96628743
Schlesinger Gallery,(212) 734-3600,24 E 73rd St,10021,40.77245892,-73.96547437
Scholten Japanese Art,(212) 585-0474,63 E 66th St,10021,40.76771754,-73.96707156
Schonfeld R D & Co Inc,(212) 755-7005,349 E 49th St,10017,40.75363538,-73.96698518
Sculpture Center,(718) 361-1750,44-19 Purves St,11101,40.74692133,-73.94081427
Sean Kelly Inc,(212) 239-1181,526 W 29th St,10001,40.75188382,-74.00306879
Sears-Peyton Gallery,(212) 966-7469,210 11th Ave,10001,40.74991739,-74.00579913
Seaside Summer Concert Series Inc,(718) 469-1912,572 Flatbush Ave,11225,40.65968268,-73.96089004
Second Ave Art Expo,(212) 223-9095,980 2nd Ave,10022,40.75583142,-73.96741088
Seibold Eleanor,(212) 988-4731,1601 York Ave,10028,40.77506696,-73.94807967
Senior & Shopmaker,(212) 213-6767,21 E 26th St,10010,40.7432733,-73.98681735
Sepia International Inc the,(212) 645-9444,148 W 24th St,10011,40.74425013,-73.9945027
Serbin Inna,(212) 249-5252,342 E 77th St,10021,40.77111187,-73.95440567
Serger Helen La Boetie,(212) 535-4865,9 E 82ND ST,10028,40.77875555,-73.96122592
Seven Colors,(212) 681-9091,555 5th Ave,10017,40.75567804,-73.97882344
Shades of Art,(718) 834-0084,47 Flatbush Ave,11217,40.68753305,-73.97949384
Shainman Jack Gallery,(212) 645-1701,513 W 20th St,10011,40.74636555,-74.0062634
Shapolsky Anita Gallery,(212) 452-1094,152 E 65th St,10021,40.76539575,-73.96455977
Shawn Dulaney Studio,(212) 255-7986,34 W 22nd St,10010,40.74147187,-73.99205567
Shepherd & Derom Galleries,(212) 861-4050,58 E 79th St,10021,40.77579399,-73.96166653
Shickman H Gallery,(212) 249-3800,220 E 72nd St,10021,40.76901768,-73.95972631
Shulman B & M Inc,(718) 646-6022,2623 Avenue U,11229,40.60027352,-73.94506548
Sigrid Freundorfer Fine Art,(212) 517-9700,790 Madison Ave,10021,40.76848323,-73.96809593
Silverstein Gallery Inc,(212) 929-4300,520 West 21st St,10011,40.7465867,-74.00610392
Simply Marvelous Art,(718) 291-9862,159-15 Jamaica Ave,11432,40.70412221,-73.79975655
Skoto Gallery,(212) 352-8058,529 W 20th St,10011,40.74667658,-74.0068503
Sloan McGill Collection,(718) 469-1930,150 Midwood St,11225,40.65961513,-73.95565084
Smack Mellon Studios,(718) 422-0989,92 Plymouth St,11201,40.70375074,-73.98985972
Smith Gallery,(212) 744-6171,447 W 24th St,10011,40.74814601,-74.00265775
Society For Renewal of Christian Art,(212) 288-8186,217 E 66th St,10021,40.76564703,-73.96219073
Soho 20,(212) 367-8994,511 W 25th St,10001,40.74948118,-74.00383257
Soho Photo Gallery,(212) 226-8571,15 White St,10013,40.71896419,-74.00555633
Soldwedel Kipp,(212) 759-1175,470 Park Ave,10022,40.76224192,-73.970742
Soloman & Co Fine Art Gallerie,(212) 737-8200,959 Madison Ave,10021,40.77383485,-73.96352461
Sonnabend Gallery Inc,(212) 627-1018,532 W 22nd St,10011,40.74753287,-74.00640433
Soufer Gallery,(212) 628-3225,1015 Madison Ave,10075,40.77578491,-73.96219093
Spencer Brownstone Gallery,(212) 334-3455,39 Wooster St.,10013,40.72259291,-74.00285195
Sperone Westwater,(212) 253-0648,121 Greene St,10012,40.72544341,-73.9992624
Spring,(718) 222-1054,126 Front St,11201,40.70224828,-73.98739581
Sragow Ellen Ltd,(212) 219-1793,153 West 27th Street,10001,40.74652176,-73.9930249
St Etienne Galerie,(212) 245-6734,24 W 57th St,10019,40.76331815,-73.9756284
Staley-Wise Gallery,(212) 966-6223,560 Broadway,10012,40.72388325,-73.99767009
Start,(212) 431-2414,50 Greene St,10013,40.72198834,-74.00158103
State of Art,(718) 349-7250,113 Franklin St,11222,40.73022122,-73.95791517
Steigrad Lawrence Fine Arts,(212) 517-3643,23 E 69th St,10021,40.76982013,-73.96622596
Stein Gertrude Gallery,(212) 535-0600,200 West 57th Street,10019,40.76544489,-73.98049754
Stephen Downes Gallery,(212) 274-9194,377 Broome St,10013,40.72012487,-73.99647297
Stewart Waltzer Co,(212) 675-4949,200 W Houston St,10014,40.72871353,-74.0039409
Storefront For Art and Architecture,(212) 431-5795,97 Kenmare St,10012,40.72147743,-73.9970683
"Stricoff Fine Art, Ltd.",(212) 219-3977,564 W 25th St,10001,40.74989328,-74.00571078
Studio Gallery,(212) 579-4654,205 W 88th St,10024,40.78933483,-73.97428548
Studio Tamar,(212) 529-4247,152 E 22nd St,10010,40.73821552,-73.98429766
Stux Gallery,(212) 352-1600,530 W 25th St,10001,40.74932239,-74.0048092
Sugarhill Arts Center,(212) 491-5890,3658 Broadway,10031,40.8302204,-73.94709267
Suite 106,(212) 274-9166,112 Mercer St,10012,40.72359612,-73.99892431
Sun Yi Jun,(212) 625-1910,83 Bowery,10002,40.71676282,-73.99534581
Susan Aberbach Fine Art,(212) 207-4600,41 E 57th St,10022,40.76228905,-73.97168389
Susan Megson Gallery,(212) 254-8090,456 W Broadway,10012,40.7262492,-74.00081321
Susan Rolfe Associates Fine Arts Ltd,(212) 688-7184,654 Madison Ave,10021,40.7644843,-73.97111034
Susan Sheehan Gallery,(212) 489-3331,535 West 22nd Street,10011,40.74791171,-74.00605482
Sutherland M,(212) 249-0428,620 Park Ave,10021,40.76696025,-73.96722779
Swiss Institute,(212) 925-2035,495 Broadway,10012,40.72224748,-74.00006289
Taglialatella Dominic J,(212) 367-0881,511 West 25th Street,10001,40.7495251,-74.00394584
Takako Tsuji Gallery,(212) 231-1778,41 E 57th St,10022,40.76221205,-73.97173794
Talwar Gallery,(212) 673-3096,108 E 16th St,10003,40.73545815,-73.98882749
Tambaran Gallery,(212) 570-0655,5 E 82nd St,10028,40.77879669,-73.96139899
Tang Sarina,(212) 517-7401,3 E 76th St,10021,40.77499081,-73.96443414
Tanya Bonakdar Galery,(646) 638-9471,521 W 21st St,10011,40.74717188,-74.00619628
Tate,(212) 242-9888,413 W 14th St,10014,40.74160877,-74.00618826
Tatistcheff Gallery Inc,(212) 664-0907,529 West 20th Street,10011,40.74659365,-74.00694992
Team Gallery,(212) 279-9219,527 W. 26th St.,10001,40.75021954,-74.0039373
Teller Susan Gallery,(212) 941-7335,568 Broadway,10012,40.72429066,-73.99746436
Tenri Cultural Institute,(212) 645-2800,43A W. 13th St.,10011,40.73640267,-73.99609362
Thaw E V & Co,(212) 535-6333,726 Park Ave,10021,40.77042623,-73.96487148
The Affordable Art Fair Llc,(212) 255-2003,216 W 18th St,10011,40.74128145,-73.99907019
The Axa Gallery,(212) 554-4818,787 7th Ave,10019,40.76169418,-73.9817828
The Bohen Foundation,(212) 414-4575,415 W 13th St,10014,40.74080796,-74.00650281
The Chinese Art Gallery,(212) 759-1153,1050 2nd Ave,10022,40.75795522,-73.96565695
The Dollhaus Art Gallery,(718) 486-0330,37 Broadway,11211,40.71090184,-73.96728726
The Gallery 172,(718) 861-3571,1620 E 172nd St,10472,40.8315804,-73.8749194
The Old Print Shop Inc,(212) 683-3950,150 Lexington Ave,10016,40.74374126,-73.98210768
The Phatory Llc,(212) 777-7922,618 E 9th St,10009,40.72572166,-73.97947469
The Q Department,(212) 219-3304,28 Howard St,10013,40.71966311,-74.00036768
The Scene Gallery,(212) 674-0508,42 Rivington St,10002,40.72106206,-73.99097517
Thicket,(212) 343-2849,10 Leonard St,10013,40.71858122,-74.00824905
Think Art Gallery,(212) 695-2006,336 W 37th St,10018,40.75466722,-73.99403189
Thomas & Hirsch,(212) 625-2011,375 W Broadway,10012,40.72343124,-74.0022847
Thomas Erben Gallery,(212) 645-8701,526 W 26th St,10001,40.74989644,-74.00429401
Thomson C Art,(212) 249-0242,19 E 75th St,10021,40.77400673,-73.9643099
Three East Third St Corp,(212) 533-7749,3 E 3rd St,10003,40.72631717,-73.99127036
Throckmorton Fine Arts,(212) 223-1059,145 E. 57th St.,10022,40.76094893,-73.9684469
Tilton Jack Gallery,(212) 941-1775,47 Greene St,10013,40.72225087,-74.00200058
Time Is Always Now,(212) 343-2211,476 Broome St.,10013,40.72303601,-74.00165246
Tk Oriental Antiques,(212) 980-6416,41 E 57th St,10022,40.76234556,-73.97182904
Tobey Fine Art,(212) 431-7878,580 Broadway,10012,40.72443535,-73.99703668
Ton Ying & Co,(212) 751-0134,1050 2nd Ave,10022,40.75808113,-73.96571788
Tonal Motion Inc,(212) 719-4393,1026 Avenue of the Americas,10018,40.75245457,-73.98546139
Tonkonow Leslie,(212) 255-8450,535 W 22nd St,10011,40.74795822,-74.00615109
Tower Art Gallery,(212) 571-0100,7 Maiden Ln,10038,40.70983828,-74.00950849
Traditional Art Gallery Inc,(212) 593-0350,1050 2nd Ave,10022,40.75803479,-73.96585513
Triangle Editions,(212) 355-3754,111 E 62nd St,10021,40.76471075,-73.96777316
Tribes Gallery,(212) 674-8262,285 E. Third St.,10009,40.72155551,-73.97988408
Triple Candie,(212) 865-0783,461 W 126th St,10027,40.81374658,-73.95506322
Triton Collection the,(212) 594-9590,224 12th Ave,10001,40.75257912,-74.00704894
Troubetzkoy Paintings,(212) 473-4047,366 E 8th St,10009,40.72422992,-73.97777959
Tunick David,(212) 570-0090,19 East 66th Street,10065,40.76833078,-73.96849023
Turkana Gallery,(212) 732-0273,125 Cedar St,10006,40.70976778,-74.01245255
Ubu Gallery,(212) 753-4444,416 EAST 59 STREET,10022,40.75904778,-73.9612439
Under Minerva,(718) 788-0170,656 5th Ave,11215,40.66242445,-73.99264059
Up & Co,(212) 966-7847,257 Church St,10013,40.71803596,-74.00525334
Uptown Gallery the,(212) 722-3677,1194 Madison Ave,10128,40.78195083,-73.95834181
Urban Architecture Gallery of Applied Arts Inc,(718) 349-3837,1205 Manhattan Ave,11222,40.73872,-73.9556829
"Ursus Books & Prints, Ltd.",(212) 744-1600,981 Madison Ave.,10021,40.77455057,-73.96314948
Valenzi Gallery & Framing,(718) 274-1419,2904 23rd St,11102,40.76975797,-73.92609137
Van De Weghe Fine Art,(212) 929-6633,521 W 23rd St,10011,40.74829506,-74.00485832
Vance Jordan Fine Art,(212) 570-9500,958 Madison Ave,10001,40.77407623,-73.96412402
Veranda Design,(212) 724-5156,225 W 83rd St,10024,40.78627113,-73.97719259
Verona Arts Ltd,(212) 317-1010,603 5th Ave,10017,40.7574937,-73.97755224
Viart Corporation,(212) 752-3500,120 E 56th St,10022,40.76043004,-73.970647
Vick Corporate Art Advisors,(212) 414-1976,210 11th Ave,10001,40.74980455,-74.00577307
Vieille Russie Inc Antiqs & Jwlry,(212) 752-1727,781 5th Ave,10022,40.76431012,-73.97253002
Vietnam Art Design,(212) 431-8889,345 Greenwich St,10013,40.71840386,-74.0101257
Viewpoint Gallery,(212) 242-5478,41 Union Sq W,10003,40.73711799,-73.99068945
Vincent Fremont Enterprises,(212) 414-1881,1 Union Sq W,10003,40.73550087,-73.99187771
Viridian Artists Inc,(212) 414-4040,530 W 25th St,10001,40.74929138,-74.00472764
Visage Studios,(212) 391-0131,12 West 37th Street,10018,40.75055103,-73.98424841
Visual Arts Gallery,(212) 598-0221,137 Wooster St,10012,40.7259206,-74.00014431
Volpe Organization,(212) 227-7913,100 W End Ave,10023,40.77482589,-73.98809617
Wada Takashi Gallery,(212) 586-8979,350 W 50th St,10019,40.76290655,-73.98849961
Wade Maxx Art Gallery,(212) 579-6529,191 Columbus Ave,10023,40.7752092,-73.98013755
Wally Findlay Galleries,(212) 421-5390,124 E 57th St,10022,40.76088973,-73.96978732
Ward-Nasse Gallery,(212) 925-6951,178 Prince St,10012,40.72612435,-74.00206949
Washburn Galleries,(212) 397-6780,20 W 57th St,10019,40.76329173,-73.9754894
Washington Sq Outdoor Art Exhibit Inc,(212) 982-6255,115 E 9th St,10003,40.73055351,-73.98955957
Webster David,(212) 367-8120,448 W 16th St,10011,40.74255494,-74.00604994
Weisbrod Chinese Art Ltd,(212) 319-1335,36 E 57th St,10022,40.76183606,-73.97195658
Wellesley the,(212) 288-2666,200 E 72nd St,10021,40.76937887,-73.96043137
Wessel & O'Connor,(212) 242-8811,242 W. 26th St.,10011,40.74658362,-73.99604272
Westbeth Gallery,(212) 989-4650,55 Bethune St,10014,40.73681609,-74.00892207
Western Art Collectors Society,(718) 351-5268,1374 Richmond Rd,10304,40.5952498,-74.09740511
Westwood Gallery,(212) 925-5700,568 Broadway,10012,40.72442296,-73.99734434
Weybridge Fine Art,(212) 628-5445,30 E 81st St,10028,40.77737493,-73.96097806
Whas Cultural Art Center Inc,(212) 569-2224,4450 Broadway,10040,40.85624733,-73.93249803
White Box,(212) 714-2347,525 W. 26th St.,10001,40.75032291,-74.00398261
White Columns Inc,(212) 924-4212,320 W 13th St,10014,40.73907339,-74.00412299
Whitfield James Fine Art,(212) 982-8050,107 University Pl,10003,40.73415172,-73.99223345
Wickiser Walter Gallery Inc,(212) 941-1817,210 Eleventh Avenue,10001,40.74970893,-74.00583422
Willow Woodstock Artistic Enterprises,(212) 677-6547,92 Saint Marks Pl,10009,40.72731799,-73.98503774
Wilmer Jenning Gallery,(212) 505-6771,215 E 2nd St,10009,40.72158811,-73.98297564
Winston Wachter Mayer Fine Art,(212) 255-2718,530 W 25th St,10001,40.74947055,-74.00469934
Winter Works On Paper,(718) 599-0910,167 North 9th Street,11211,40.71884386,-73.95596899
Wolf Daniel Inc,(212) 772-7721,52 E 78th St,10021,40.77515497,-73.96208739
Woodward Gallery,(212) 966-3411,133 Eldridge Street,10002,40.71901344,-73.99181719
WORLD AFRICA,(212) 781-1872,779 RIVERSIDE DR,10032,40.83514504,-73.94753651
World Art Center,(212) 791-4941,104 Nassau St,10038,40.71059949,-74.00717582
Yancey Richardson Gallery,(646) 230-9610,535 W 22nd St,10011,40.74799009,-74.00606502
Yasuda Fine Arts Inc,(212) 977-7966,15 W 53rd St,10019,40.76154759,-73.9776035
Yorks Shona Gallery,(212) 431-7444,99 Spring St,10012,40.72346095,-73.99930952
Yorkville Art Gallery & Framing,(212) 423-0604,1687 3rd Ave,10128,40.78412567,-73.94977563
Yoshii Gallery,(212) 744-5550,980 Madison Avenue,10075,40.77472916,-73.96353645
Yung Hee Kim,(212) 734-0009,945 5th Ave,10021,40.77480195,-73.9650305
Zabriskie Gallery,(212) 752-1223,41 W 57th St,10019,40.76417706,-73.97608678
Zarre Andre Gallery,(212) 255-0202,529 W 20th St,10011,40.74665656,-74.00694053
Zetterquist Galleries,(212) 751-0650,3 East 66th Street,10065,40.76855091,-73.96909886
Zito Studio Gallery,(646) 602-2338,122 Ludlow St,10002,40.71959638,-73.98835222
Zwirner & Wirth,(212) 517-8677,32 E. 69th St.,10021,40.76947535,-73.96656358
Zwirner David Gallery,(212) 727-2070,525 W 19th St,10011,40.74589496,-74.00696818
Priska C. Juschka Fine Art Inc,(212) 244-4320,547 W 27th St,10001,40.7512663,-74.00436441
1 2 3 Watts Gallery,(212) 219-1482,123 Watts St,10013,40.72385717,-74.00902349
12 Below,(212) 777-6777,853 Broadway,10003,40.73460139,-73.99106783
14 Sculptors Gallery,(212) 966-5790,168 Mercer St,10012,40.72525532,-73.99752291
1405 Art Gallery,(212) 717-4025,1405 2nd Ave,10021,40.76974722,-73.95798347
2 Welancora Gallery,(718) 919-0344,410 Jefferson Ave,11221,40.6840779,-73.94151974
280 Modern,(212) 941-5825,1875 Dekalb Ave,11385,40.70924363,-73.91448247
3 Costantino Fioratti Helen C,(212) 517-9176,36 E 73rd St,10021,40.77217101,-73.96468514
303 Gallery,(212) 255-1121,547 W 21st Street,10011,40.74748973,-74.00709988
33rd St Galleria,(212) 273-9673,401 7th Ave,10001,40.74998474,-73.99086173
33rd Street Galleria,(212) 760-1228,131 W 33rd St,10001,40.74995773,-73.98967644
4 Chambers Fine Art,(212) 414-1169,522 West 19th Street,10011,40.74548098,-74.00711819
5 Robin Rice Gallery,(212) 366-6660,325 W 118th St,10026,40.8060391,-73.95513651
531 Artspace,(718) 388-6087,531 Graham Ave,11222,40.72132182,-73.94713438
73 St Farmers Market,(212) 879-3500,1368 York Ave,10021,40.76730472,-73.95301546
A Clean Well Lighted Place Inc,(212) 255-3656,363 Bleecker St,10014,40.73453611,-74.00455563
A J ARTS LTD,(718) 763-5473,6208 MILL LN,11234,40.61860965,-73.91691325
A.I.R. Gallery,(212) 966-0799,40 Wooster St,10013,40.72220574,-74.00247724
AAA-Abbey Mdsng Co Inc,(718) 253-8830,618 Coney Island Ave,11218,40.64223849,-73.96993064
Abada Felix Inc,(212) 427-8731,1556 3rd Ave,10128,40.77982819,-73.95369907
Aberbach Fine Art,(212) 988-1100,41 E 57th Street,10022,40.76234165,-73.97156739
Aca Galleries,(212) 206-8080,529 W 20th St,10011,40.74666372,-74.00671307
Ace Gallery,(212) 255-5599,275 Hudson St,10013,40.72518059,-74.0080057
Acquavella Galleries Inc,(212) 734-6300,18 E 79th St,10021,40.776242,-73.96264903
Adam Baumgold Fine Art,(212) 861-7338,74 E. 79th St.,10021,40.77566375,-73.9610758
Adam Williams Fine Art Ltd,(212) 249-4987,24 East 80th Street,10075,40.77696724,-73.96206754
Adams Fund Art Buyers,(212) 873-2633,330 W 72nd St,10023,40.78013539,-73.98593597
Adams George Gallery,(212) 644-5665,41 W 57th St,10019,40.76409153,-73.97614893
Adelson Galleries,(212) 439-6800,219 E 82nd St,10028,40.77602747,-73.95485348
Adler & Conkright Fine Art Llc,(212) 772-7509,24 E 71st St,10021,40.77097524,-73.96624092
African Arts Center Inc,(212) 244-6914,615 W 27th St,10001,40.75191958,-74.00566649
Africart Motherland Inc,(212) 368-6802,2478 Frederick Douglas Blvd,10027,40.81484874,-73.94739591
Agora Gallery,212-226-4151,530 W 25th St,10001,40.74943954,-74.00462798
Akira Ikeda Gallery,(212) 366-5449,17 Cornelia St,10014,40.73159806,-74.0019872
Alan Brasington Inc,(212) 366-9996,23 8th Ave,10014,40.73792128,-74.00465112
Alaska on Madison,(212) 879-1782,1065 Madison Ave,10028,40.77729595,-73.96107281
Alexander and Bonin,(212) 367-7474,132 10th Ave,10011,40.7446874,-74.00599211
Alexander's Sculptural Svce,(212) 867-8866,117 E 39th St,10016,40.74998353,-73.97794942
Alexandre Gallery,(212) 755-2828,41 E 57th St,10022,40.76226849,-73.97161806
Alliance of Queens Artists,(718) 520-9842,99-10 Metropolitan Ave.,11375,40.71066978,-73.85334629
Blum Peter-Blum Arts,(212) 343-0441,99 Wooster St,10012,40.7245907,-74.00107688
Alter Silver Gallery Corp,(212) 750-1928,1050 2nd Ave,10022,40.75820702,-73.96574831
American European Fine Art Inc,(212) 517-4010,115 E 89th St,10128,40.78188518,-73.95473278
American Fine Arts Co,(212) 941-0401,530 W 22nd St,10011,40.74749327,-74.0061075
American Folk Art Museum - Eva and Morris Feld Gallery,(212) 595-9533,2 Lincoln Square,10023,40.77314532,-73.98142236
Ameringer & Yohe Fine Arts,(212) 445-0051,525 West 22nd Street,10011,40.7476769,-74.00570231
Amos Eno Gallery,(718) 237-3001,111 Front Street,11201,40.70283986,-73.98909224
An American Space,(212) 426-2879,118 E 92nd St,10128,40.78347688,-73.95373195
Ancient Art of the New World Inc,(212) 737-3766,525 E 72nd St,10021,40.76900976,-73.95334299
Andover Gallery,(212) 473-1722,60 Rivington St,10002,40.72083117,-73.99023923
Andrew Edlin Gallery,(212) 206-9723,134 Tenth Avenue,10011,40.74469818,-74.00584416
Andy Warhol Authentication Board Inc,(212) 727-1735,525 W 20th St,10011,40.74649764,-74.00657819
Angel Orensanz Foundation,(212) 780-0175,172 Norfolk St,10002,40.72114259,-73.98566579
Anita Friedman Fine Arts,(212) 472-1527,980 Madison Ave,10021,40.77479505,-73.96348525
Annex the,(646) 638-3785,601 W 26th St,10001,40.75175124,-74.00726919
Annie Yau Gallery,(212) 580-2980,173 W 88th St,10024,40.78882752,-73.97318629
Annina Nosei Gallery,(212) 741-8695,528 W 22nd St,10011,40.74745711,-74.00603307
Anthony Grant Inc,(212) 755-0434,37 W 57th St,10019,40.76403092,-73.97595129
Antik,(212) 343-0471,104 Franklin St,10013,40.71861368,-74.00559643
Antiquarium Fine Ancient Arts Gallery Ltd,(212) 734-9776,948 Mad Ave,10001,40.7737083,-73.96448584
Anton Kern Gallery Inc,(212) 965-1706,532 W 20th St,10011,40.74626699,-74.00716258
Apex Art,(212) 431-5270,291 Church St,10013,40.71902942,-74.00442891
April's Gallery,(212) 694-4538,501 W 145th St,10031,40.82550711,-73.94779848
Arader W Graham Gallery,(212) 628-3668,29 E 72nd St,10021,40.77191981,-73.96506781
Arash Gallery,(212) 759-4999,1051 2nd Ave,10022,40.75835498,-73.96632495
Arcadia Fine Arts,(212) 965-1387,51 Greene St,10013,40.72233561,-74.00191255
Archibald Arts,(212) 247-5087,602 10th Ave,10036,40.76045676,-73.99447222
Archive Consulting & Management Services,(212) 242-7767,511 W 25th St,10001,40.74945619,-74.00406816
Ariel Meyerowitz Gallery,(917) 685-0089,4720 Center Blvd.,11109,40.74562272,-73.9572054
Ariston Development Group,(212) 924-1688,78 Horatio St,10014,40.73863045,-74.00720672
Arleen G Becker Gallery Inc,(347) 525-7074,200 Lexington Avenue,10022,40.74557328,-73.98078712
Art & Interiors Inc,(212) 754-9900,979 3rd Ave,10022,40.76095558,-73.96625646
Art Advice Corporate Art Consultants,(212) 683-5611,200 E 33rd St,10016,40.74457207,-73.97844633
Art Advisory Svces Inc,(212) 935-1272,530 Park Ave,10065,40.76400119,-73.96938236
Art Asap,(212) 258-3598,444 W 50th St,10019,40.76416275,-73.99102179
Art Auction Advisory Svces,(212) 935 1272,530 Park Avenue,10065,40.76406092,-73.96934511
Art Avenues Inc,(212) 874-6305,240 W End Ave,10023,40.77886825,-73.98484183
Art Finds,(212) 724-4132,140 Riverside Dr,10024,40.79017492,-73.97973389
Blumka Gallery,(212) 734-3222,209 E 72nd St,10021,40.76968728,-73.95986032
Art Gallery & Custom Framing,(212) 473-6802,799 Broadway,10003,40.73243385,-73.99179293
Art In General,(212) 219-0473,79 Walker St,10013,40.7180947,-74.00187734
Art Loft Gallery,(212) 343-3005,199 Lafayette St,10012,40.72119226,-73.99773834
Art Merchandising and Media Inc,(212) 759-0777,26 E 64th St,10021,40.76668459,-73.96958163
Art Metaphysics Education,(212) 736-0999,323 W 39th St,10018,40.75606799,-73.99233661
Art Placement International,(212) 517-8740,957 Park Ave,10028,40.77733033,-73.95878267
Art Projects International Inc,(212) 343-2599,429 Greenwich St,10013,40.72229804,-74.00940343
Art Resources Transfer Inc,(646) 486-2387,210 11th Ave,10001,40.74998457,-74.00595091
Art Student Showcase Inc,(212) 941-9471,248 Lafayette St,10012,40.72310856,-73.99720726
Art Vue,(212) 995-2008,441 3rd St,11215,40.67152952,-73.98009836
Art Wise,(212) 989-3348,133 W 25th St,10001,40.74498904,-73.993242
Arte Primitivo-Howard S Rose Gallery,(212) 570-6999,3 E 65th St,10021,40.76784299,-73.9692938
Artefina International Inc,(718) 946-7948,246 Avenue U,11223,40.59654737,-73.97523366
Artemis Fine Arts Inc,(212) 288-8488,23 E 73rd St,10021,40.7727904,-73.96520339
Artenova Ltd,(212) 581-8815,1780 Broadway,10019,40.76647975,-73.98126403
Arterres,(212) 343-1196,242 Lafayette St,10012,40.72287262,-73.99715508
Artique-the Art of Framing Inc,(212) 665-0549,2580 Broadway,10025,40.79532709,-73.97067461
Artist Prod Gallery,(212) 477-5699,448 Broadway,10013,40.72034082,-74.0008502
Artists Space,(212) 226-3970,38 Greene St,10013,40.72169943,-74.0018757
Artlife Gallery,(212) 255-9900,155 Ave of the Americas,10013,40.725415,-74.00476655
Art-Lore Inc,(718) 389-7988,1155 Manhattan Ave,11222,40.73806576,-73.95578569
Artrepreneur,(212) 861-3156,945 5th Ave,10021,40.77469948,-73.96511389
Arts Action Research,(718) 797-3661,423 Atlantic Ave,11217,40.68664178,-73.98338749
Arts at University Settlement/Speyer Hall,(212) 674-9120,185 Eldridge St.,10002,40.72068015,-73.9911973
Arts Du Monde,(212) 243-4477,40 W 25th St,10010,40.74358397,-73.99092836
Arts India,(212) 725-6092,206 5th Ave,10010,40.74320506,-73.98879876
Arts Proper International Inc,(212) 586-2810,24 W 57th St,10019,40.76346975,-73.97562042
Artscope Inc,(212) 838-0475,502 Park Ave,10022,40.76325412,-73.97009199
Ash Fine Art,(212) 734-0100,51 E 78th St,10021,40.77553584,-73.96183533
Asher Gallant Gallery,(212) 755-6770,62 E 55th St,10022,40.7606796,-73.97259126
Ashione Art Gallery,(212) 229-0899,41 Perry St,10014,40.7357165,-74.00280458
Ashoka Crafts,(212) 579-9040,202 W 77th St,10024,40.78157133,-73.97994523
Atelier A-E Ent,(212) 620-8103,35 West 23rd Street,10010,40.74237389,-73.99087594
Atelier International Art Group Inc,(212) 431-0630,594 Broadway,10012,40.72480609,-73.99671188
Atlantic Gallery,(212) 219-3183,135 West 29th St,10001,40.74746646,-73.99143108
Atmosphere Galleries Inc,(212) 343-9115,134 10th Ave,10011,40.74476247,-74.00600863
Audiello Fine Art Inc,(212) 675-9082,526 W 26th St,10001,40.75009455,-74.00442202
Audrey C Art & Jewels,(212) 755-8979,167 E 61st St,10021,40.76324997,-73.9657204
Australian Aboriginal Fine Art Gallery Of New York,(917) 459-8874,1255 5th Ave,10029,40.79501691,-73.95015416
Av Art Gallery & Custom Framing Inc,(646) 486-3781,235 8th Ave,10011,40.74461575,-73.99938014
Available Art Llc,(917) 237-1668,204 Dean St,11217,40.68530879,-73.98529286
AVC Contemporary Arts Gallery,(212) 888-1122,41 E. 57th St.,10022,40.76218379,-73.97167803
Avshalom Eitan Fine Arts,(212) 928-0760,461 Fort Washington Ave,10033,40.85075794,-73.93866148
Axelle Fine Art,(718) 246-1800,312 Atlantic Ave,11201,40.68807778,-73.98851198
Axelle Fine Arts Gallery Ltd,(212) 226-2262,148 Spring St,10012,40.724118,-74.00149048
Aztec Marketing Co,(212) 791-3317,90 John St,10038,40.70789857,-74.00648309
Back To Africa Imports,(212) 462-4848,6 W 26th St,10010,40.74347151,-73.98868277
Back To Roots Inc,(718) 649-3297,440 Montauk Ave,11208,40.66731504,-73.87589511
Bag One Arts,(212) 595-5537,110 W 79th St,10024,40.78195248,-73.97606172
Balalaika Arts & Crafts From Russia & Former Ussr,(212) 722-2594,313 E 95th St,10128,40.78336845,-73.94657506
BALMAR REALTY,(212) 702-0132,155 E 55TH ST,10022,40.75945091,-73.96906466
Barbara Gladstone Gallery,(212) 206-9300,515 W 24th St,10011,40.7488804,-74.00450715
Baron Boisante Editions,(212) 924-9940,421 Hudson St,10014,40.72988711,-74.00725575
Barrington Gallery of London Ltd,(212) 302-9546,572 5th Ave,10036,40.75650243,-73.97908152
Bayo Studios,1-800-939-2296,210 Varet Street,11206,40.70365264,-73.93513086
Beadleston Gallery,(212) 581-7544,724 5th Ave,10019,40.76260577,-73.97451739
Behr Thyssen Ltd,(212) 431-7459,165 Hudson Street,10013,40.7221639,-74.00854193
Belanthi,(718) 624-9420,142 Court St,11201,40.68920182,-73.9929238
Bellwether Gallery,(212) 929-5959,134 10th Ave,10011,40.74473102,-74.00592594
Bench Dogs,(718) 486-7338,60 Broadway,11211,40.71032151,-73.96628258
Benedetti Gallery Inc,(212) 226-2238,52 Prince St,10012,40.72326204,-73.99603744
Bernarducci Meisel Gallery,(212) 593-3757,37 W 57th St,10019,40.764065,-73.97603744
Bernstein David Primitive Art,(212) 794-0389,737 Park Ave,10021,40.77042906,-73.96377491
Berry-Hill Galleries Inc,(212) 744-2300,11 E 70th St,10021,40.77084483,-73.96674309
Beverly Sacks Fine Art,(212) 583-9798,229 E 60th St,10022,40.76175802,-73.96480041
Beyond the Wall,(212) 622-7350,529 5th Ave,10017,40.75443328,-73.97967537
BICYCLE PAINTINGS.COM,(917) 771-8537,106 Ridge Street,10002,40.71868692,-73.98314703
Big Cat Gallery,(212) 982-6210,154 Orchard Street,10002,40.72079933,-73.98866228
Bill Bace Gallery,(212) 219-0959,39 Wooster St,10013,40.72252117,-74.00271112
Bill Hodges Gallery,(212) 333-2640,24 W 57th St,10019,40.763437,-73.97553999
Bitforms,(212) 366-6939,529 W 20th St,10011,40.74649787,-74.0068296
Black & Black Art Gallery,(718) 658-9203,9215 Merrick Blvd,11433,40.7054239,-73.79336576
Black & White Gallery Inc,(718) 599-8775,483 Driggs Ave,11211,40.71844238,-73.95464223
Bleier Milton A Corp,(212) 533-1730,386 Park Ave,10016,40.75960676,-73.97287193
Blue Mountain Gallery Inc,(646) 486-4730,530 W 25th St,10001,40.74923625,-74.00476842
Bodanna Inc,(212) 388-0078,123 E 7th St,10009,40.72652721,-73.98411975
Bolivar Arellano Gallery,(212) 420-1263,420 E 9th St,10009,40.72761183,-73.98391618
Bonakdar Jancou Gallery,(212) 414-4144,521 W 21st St,10011,40.74700169,-74.00611786
BORDEN JANET INC,(212) 431-0166,560 BROADWAY,10012,40.7240463,-73.99768478
Bose Pacia Modern,(212) 989-7074,508 W 26th St,10001,40.74976022,-74.00359349
Bound and Unbound,(212) 463-7348,601 W. 26th St,10001,40.75159814,-74.00687162
Bowery Gallery,(646) 230-6655,530 W 25th St,10001,40.74926984,-74.00484544
Brenda Taylor Gallery,(212) 463-7166,511 W. 25th Street,10001,40.74935025,-74.00382577
Bridgewater Gallery of Fine Arts Inc,(212) 674-3650,176 East 3rd Street,10009,40.72292592,-73.98412586
Bronx River Art Center,(718) 589-5819,1087 East Tremont Ave,10460,40.84059709,-73.87815507
Brooke Alexander Gallery,(212) 925-4338,59 Wooster St.,10012,40.72320925,-74.00226166
Brooklyn Arts Exchange,(718) 832-0018,421 Fifth Ave.,11215,40.66976942,-73.98543282
Brooklyn Fireproof,(718) 456-7570,119 Ingraham St,11237,40.70788793,-73.92918028
Broome Street Gallery the,(212) 226-6085,498 Broome St,10013,40.72338629,-74.00262453
Bruce Palmer Galleries,(212) 595-6651,180 Riverside Drive,10024,40.79219979,-73.97712674
Bruce Silverstein Gallery,(212) 627-3930,504 W. 22nd St.,10011,40.74712573,-74.00514719
Bruton Gallery Inc,(212) 980-1640,40 E 61st St,10021,40.76431098,-73.96984506
Buzzco Assoc Inc,(212) 473-8800,33 Bleecker St,10012,40.72583067,-73.99375529
C & M Arts,(212) 861-0020,45 E. 78th St.,10021,40.77561747,-73.96202951
Caelum Gallery,(212) 924-4161,526 W 26th St,10001,40.75002305,-74.00446732
Caldwell Snyder Gallery,(212) 387-0208,451 W Broadway,10012,40.72589116,-74.00041761
Candyland Films,(212) 219-2500,446 Broadway,10013,40.72028153,-74.00091722
Caravan International Co,(212) 772-7160,210 E 86th St,10028,40.77813815,-73.95350252
Carboni Inc,(212) 944-1566,2 W 45th St,10036,40.75545955,-73.98021698
Carley Ann M Atty,(212) 334-7993,73 Spring St,10012,40.72263369,-73.99736114
Carlton Rochell,(212) 759-7600,41 E 57th St,10022,40.76238725,-73.97170664
Carnegie Frame Inc,(212) 307-7240,160 W 55th St,10019,40.76385541,-73.98077112
Cartoon Gallery,(718) 793-4714,7028 Austin St,11375,40.72038139,-73.84605039
Cartoonews Gallery,(212) 223-4666,721 5th Ave,10022,40.76231329,-73.97410777
Casa Linda Galleries Inc,(212) 534-1847,300 E 95th St,10128,40.78335247,-73.947383
Casey M Kaplan Inc,(212) 645-7335,416 W 14th St,10014,40.7411325,-74.00652923
Catherine Conway Inc,(212) 627-9344,112 W 13th St,10011,40.73684463,-73.9982052
Cavaliero Fine Arts,(212) 947-1031,242 W 36th St,10018,40.75282327,-73.99156926
Cavin-Morris,(212) 226-3768,560 Broadway,10012,40.72389909,-73.99779868
Cds Gallery,(212) 772-9555,74 E 79th St,10075,40.77570414,-73.96117092
Celtic Art,(718) 482-7624,2415 Jackson Ave,11101,40.74640143,-73.94476783
Century Artists Inc,(212) 367-7072,530 W 25th St,10001,40.74941973,-74.00473558
Ceres Gallery,(212) 947-6100,547 W 27th St,10001,40.75132406,-74.00452369
Ceres Gallery,(212) 226-4725,584 Broadway,10012,40.72479496,-73.99703729
Cfm Gallery,(212) 966-3864,112 Greene St,10012,40.72457191,-73.9994251
Chappell Gallery,(212) 414-2673,526 W 26th St,10001,40.75015743,-74.00446166
Chat Noir Design,(212) 567-5223,295 Bennett Ave,10040,40.85929737,-73.93207459
Cheim & Read,(212) 242-7727,547 W 25th St,10001,40.75001941,-74.00513583
Chelsea Ceramic Guild,(212) 243-2430,233 W 19th St,10011,40.7423876,-73.99869441
China 2000,(212) 588-1198,5 E 57th St,10022,40.76285383,-73.97319627
China 2000 Fine Arts,(212) 472-9800,434A East 75th Street,10021,40.76900976,-73.95334299
Chinatown Frame & Art Inc,(212) 219-2828,40 Elizabeth St,10013,40.71670513,-73.99658768
Chinoh Art Gallery,(212) 255-0377,69 5th Ave,10003,40.73615406,-73.99315956
Chowder Inc,(212) 352-0202,15 W 18th St,10011,40.73915341,-73.99281171
Christiane Nienaber Contemporary Art,(212) 358-0577,191 Chrystie St,10002,40.72199731,-73.99227383
Christine Burgin Gallery,(212) 462-2668,243 W 18th St,10011,40.74199886,-73.99954508
Cinque Gallery,(212) 966-3464,560 BROADWAY,10012,40.72397735,-73.99759294
Claire Oliver Fine Arts Inc,(212) 929-5949,513 West 26th Street,10001,40.75008883,-74.00338485
Clampart,(646) 230-0020,531 W 25th St,10001,40.74977518,-74.0046388
Clementine Gallery,(212) 243-5937,623 W 27th St,10001,40.75209329,-74.00610794
Clinton Hill Simply Art & Framing,(718) 857-0074,583 Myrtle Ave,11205,40.69419974,-73.96081859
Coda Gallery,(212) 334-0407,472 Broome St,10013,40.72289524,-74.00156429
Cole Sylvan Gallery,(212) 333-7760,101 W 57th St,10019,40.7646577,-73.9773564
College of Staten Island - Center for the Arts,(718) 982-2000,2800 Victory Blvd.,10314,40.59966212,-74.14969499
Columbia University - Miriam and Ira D.Wallach Art Gallery,(212) 854-7288,1190 Amsterdam Ave,10025,40.80854103,-73.9604169
Columbus Art Gallery Inc,(212) 875-1678,588 Columbus Ave,10024,40.78831274,-73.97130508
Columbus Circle Gallery,(212) 489-6694,1800 Broadway,10019,40.7673376,-73.98122765
Commerce Graphics Ltd Inc,(212) 517-7648,504 E 74th St,10021,40.76774168,-73.95232973
Common Ground,(212) 620-3122,55 W 16th St,10011,40.73868808,-73.99533453
Conner Rosenkranz,(212) 517-3710,19 E 74th St,10021,40.77346566,-73.96490959
Contemporary African Art,(212) 749-8848,330 W 108th St,10025,40.80321374,-73.96880032
Contemporary art gallery in Chelsea. Wooster Gardens,(212) 929-2262,558 Broadway,10012,40.72367259,-73.9975943
Cook Fine Art,(212) 737-3550,1063 Madison Ave,10028,40.77724264,-73.96110243
Coploff Gallery,(212) 674-1024,526 W. 26th Street,10001,40.75002047,-74.00455453
Cordier & Ekstrom Inc,(212) 988-8857,417 E 75th St,10021,40.76951266,-73.95352973
"Corning Gallery at Steuben, The",(646) 497-3744,667 Madison Ave.,10017,40.76449625,-73.97028166
Cowles Charles Gallery Inc,(212) 925-3500,537 W 24th St,10011,40.74933736,-74.00542084
Creative Art USA Inc,(212) 727-7119,30 Vandam St,10013,40.72615456,-74.00497462
Crg Art Gallery,(212) 229-2766,535 W 22nd St,10011,40.74779197,-74.00613862
Criswick Assoc,(212) 490-2337,325 E 41st St,10017,40.74901948,-73.97180489
Crown Art Gallery Inc,(212) 757-8255,1609 Broadway,10019,40.76062954,-73.98510259
Crystal Art Gallery,(212) 725-5668,230 5th Ave,10001,40.74413705,-73.98844468
Cuban Art Space,(212) 242-0559,231 West 29th Street,10001,40.74865954,-73.99422633
Cuchifritos,(212) 598-4124,120 Essex St,10002,40.71913487,-73.98763036
Culture Art Gallery Llc,(212) 226-8921,415 W Broadway,10012,40.72477529,-74.00137305
Culture Crossing Inc,(212) 427-2220,40 E 94th St,10128,40.78558211,-73.9546693
Curatorial Art Advisory Service,(212) 463-0586,5 E 16th St,10003,40.73721434,-73.99183911
Cypher Editions,(212) 274-0272,22 Wooster St,10013,40.72152348,-74.00306023
Czech Center,(646) 422-3399,321 E 73rd St,10021,40.76912229,-73.956422
Dactyl Foundation for the Arts,(212) 219-2344,64 Grand St.,10013,40.72232072,-74.00318448
Dai Ichi Arts,(212) 230-1680,249 E 48th St,10017,40.75395456,-73.96959312
Dalva Brothers Inc,(212) 717-6600,52 East 77th Street,10075,40.77466685,-73.96290104
D'amelio-Terras,(212) 352-9460,525 W 22nd St,10011,40.74761065,-74.00555202
Damp Frog Productions Inc,(212) 226-6361,1 Orchard St,10002,40.71457046,-73.99227136
Danese,(212) 223-2227,535 W 24th St,10011,40.74917263,-74.00526783
Danette Koke Fine Art,(212) 206-6566,55 Bethune St,10014,40.73679551,-74.00855042
Daniel H Roberts Studio,(617) 728-4477,9 Desbrosses Street,10013,40.7232345,-74.00910863
David Killen Fine Arts,(212) 426-0079,1641 3rd Ave,10128,40.78201539,-73.95066796
David Nolan New York,(212) 925-6190,527 W 29th St,10001,40.75221446,-74.00267818
Davis Leron Galries,(212) 838-0333,746 Madison Ave,10021,40.76723679,-73.96910832
DC Moore Gallery,(212) 247-2111,724 5th Ave,10019,40.76266951,-73.97447205
Dca Gallery,(212) 255-5511,525 W 22nd St,10011,40.74755765,-74.00542352
De Nagy Tibor Art Gallery,(212) 262-5050,724 5th Ave,10019,40.76270743,-73.97457853
Dean Andree M,(212) 831-0402,1035 Park Ave,10028,40.77982311,-73.95706273
Debs & Co,(212) 643-2070,531 W 26th St,10001,40.75017475,-74.00385234
Greer Gallery Inc,(212) 431-6025,81 Wooster St,10012,40.72393891,-74.00186315
Grimm Jay Gallery,(212) 564-7662,505 W 28th St,10001,40.75105951,-74.00212168
Guggenheim Asher Assocs Inc,(212) 242-5767,138 W 13th St,10011,40.73724886,-73.99906221
Guggenheim Asher Assocs Inc,(212) 772-3888,138 W 13th St,10011,40.73718458,-73.99910998
Guy Regal Ltd,(212) 888-2134,223 E 60th St,10022,40.76188644,-73.96495627
Hall & Knight U S A Ltd,(212) 772-2266,21 E 67th St,10021,40.76891016,-73.96794455
Hammer Galleries,(212) 644-4400,33 W 57th St,10019,40.7640147,-73.97573457
Hanover Sq Gallery,(212) 344-4406,202 Park Place,11238,40.67698834,-73.97128381
Harari & Johns Inc,(212) 772-3380,63 E 82nd St,10028,40.77810558,-73.95977553
Harlan & Weaver Intaglio,(212) 925-5421,83 Canal St,10002,40.71550208,-73.99305509
Harlem Art Gallery,(212) 831-5333,86 W 119th St,10026,40.80361809,-73.94805169
Hazlitt Gooden & Fox,(212) 772-1950,17 E 76th St,10021,40.77471647,-73.96400124
Healing Arts,(718) 384-6773,135 Wythe Ave.,11211,40.71967845,-73.96002002
Heilman Phillip Douglas,(212) 787-1759,1336 Dekalb Ave,11221,40.69848967,-73.924937
Heller Gallery,(212) 414-4014,420 W. 14th St.,10014,40.74120765,-74.00672064
Helly Nahmad Gallery Inc,(212) 879-2075,975 Madison Ave,10021,40.77441643,-73.96323779
Hemingway African Gallery,(212) 838-3650,1050 2nd Ave,10022,40.75812414,-73.96554577
Henoch Gallery,(917) 305-0003,555 W 25th St,10001,40.75002819,-74.00531476
Hirschl & Adler Galleries,(212) 535-8810,21 E. 70th St.,10021,40.77076084,-73.96647641
Historical Design Collection Inc,(212) 593-4528,306 E 61st St,10021,40.76138938,-73.96284773
Hochman Irena Fine Art Ltd,(212) 772-2227,1100 Madison Ave,10028,40.77848561,-73.96078341
HOFFELD JEFFREY & CO,(212) 996-6339,360 E 88TH ST,10128,40.77816244,-73.9489083
Holmberg I,(212) 545-9155,280 Madison Ave,10016,40.75150285,-73.98065902
Honda Fine Art,(212) 477-4086,55 Great Jones St,10012,40.72642838,-73.9924632
Hoorn-Ashby Gallery,(212) 628-3199,766 Madison Ave,10021,40.76788288,-73.96860379
Horan Vivian Fine Art,(212) 517-9410,35 E 67th St,10021,40.76853707,-73.96707384
Horus Art Enterprises,(212) 688-8729,200 E 65th St,10021,40.76480382,-73.96351076
Howard Greenberg Gallery,(212) 334-0010,41 E 57th St,10022,40.76244505,-73.97186783
Howard Nowes Ancient Art,(917) 339-0620,1220 Broadway,10001,40.7469112,-73.98814827
Howard Scott Gallery,(212) 472-5171,303 East 81st Street,10028,40.7746112,-73.95345448
Hubert Gallery,(212) 628-2922,1046 Madison Ave,10075,40.77694751,-73.96187638
Hubert Gallery North,(212) 535-9723,1046 Madison Ave,10021,40.77687206,-73.96193403
Hut Gallery the,(718) 222-9519,84 Hoyt St,11201,40.68807177,-73.98698066
Hutton Leonard Galleries,(212) 751-7373,41 E 57th St,10022,40.7623751,-73.97191597
Hutton Leonard Galleries Facs,(212) 751-7373,41 E 57th St,10022,40.76231286,-73.97196242
Hw Gerst,(212) 288-3400,955 5th Ave,10021,40.77531718,-73.96458036
I & L Image Corp,(212) 627-4649,529 W 20th St,10011,40.74654219,-74.00694992
I C Editions,(212) 647-9111,522 West 24 Street,10011,40.74877351,-74.00516169
I Perry,(212) 925-6704,481 Washington St,10013,40.72561867,-74.00978327
Illustration House Inc,(212) 966-9444,110 W 25th St,10001,40.74424858,-73.99252245
Images Corporate Art Services,(212) 219-8484,400 E 56th St,10022,40.7570848,-73.96308722
Incredibleart.Com Inc,(646) 613-9383,25 Mercer St,10013,40.72091221,-74.00204405
Indians On Columbus,(212) 769-9374,452 Columbus Ave,10024,40.78373479,-73.97464955
Infinity Fine Arts Inc,(212) 645-6880,511 W 25th St,10001,40.7495165,-74.00371025
Inner City Art Gallery Inc,(212) 368-4941,2251 Adam Clayton Powell Jr Blvd,10027,40.8135293,-73.94456809
Innovative Art Gallery Inc,(212) 367-8844,154 W 14th St,10011,40.73816931,-73.99954514
Inter Art Gallery,(212) 647-1811,225 10th Ave,10011,40.74805554,-74.00418891
International Print Center New York,(212) 989-5090,526 W 26th St,10001,40.75004718,-74.00429062
Irit Baniel Studio,(917) 202-2527,582 DRIGGS AVENUE,11211,40.71640453,-73.95735398
Ise Art Foundation,(212) 925-1649,555 Broadway,10012,40.72392227,-73.99864412
Isselbacher Gallery Inc,(212) 472-1766,64 E 86th St,10028,40.78033057,-73.95822258
J Cacciola Galleries,(212) 462-4646,617 W 27th St,10001,40.75206092,-74.00583688
J M Art Gallery,(212) 247-4708,1760 Broadway,10019,40.76582551,-73.98154615
Jadite Galleries,(212) 977-6190,413 W 50th St,10019,40.76396461,-73.98967473
Jain Marunouchi Gallery,(212) 969-9660,24 W 57th St,10019,40.76343013,-73.97565215
James Cohan Gallery,(212) 714-9500,533 W 26th St,10001,40.7503964,-74.0040987
James Graham & Sons Gallery,(212) 535-5767,1014 Madison Ave,10021,40.77588116,-73.96267507
Jane St Lifer Fine Art Inc,(212) 825-2059,140 Riverside Blvd,10069,40.7770141,-73.98862442
Janoray Charles Llc,(212) 472-5679,11 E 76th St,10021,40.77484441,-73.96416054
Japanese Art Dealers Assoc of Ny,(212)222-4688,17 East 76th Street,10021,40.77479192,-73.96394359
Jbpa Llc,(212) 242-5505,65 W 13th St,10011,40.73683276,-73.99677783
Jeff Lewis Studio,(212) 966-7119,9 Desbrosses Street,10013,40.72321298,-74.00896057
Jeffrey Coploff Fine Art Ltd,(212) 741-1149,508 W 26th St,10001,40.74985463,-74.00382219
Jimmy's Art Gallery,(212) 873-3993,166 W 72nd St,10023,40.7781549,-73.98122671
Joan Peck Limited Art Gallery,(212) 427-4900,1 W 67th St,10023,40.77350104,-73.97885635
Joan Whalen Fine Art,(212) 397-9700,24 W. 57th St.,10019,40.76338705,-73.97556494
John Elder Gallery,(212) 462-2600,529 W 20th St,10011,40.74664084,-74.00677134
John McEnroe Gallery,(212) 219-0395,41 Greene St.,10013,40.72208699,-74.00213616
John Stevenson Gallery,(212) 352-0070,338 W 23rd St,10011,40.74572696,-74.00007742
Jonathan Shorr Gallery,(212) 925-2723,109 Crosby St,10012,40.72411875,-73.99657105
Judaica Illuminations,(718) 375-4600,1664 Coney Island Ave,11230,40.61677558,-73.96395886
Julie Artisans Gallery,(212) 717-5959,762 Madison Ave,10065,40.7677819,-73.9686677
Julie Saul Gallery,(212) 627-2410,535 W 22nd St,10011,40.74789792,-74.00619866
JUNE BATEMAN FINE  GALLERY,(212) 925-7951,1133 BROADWAY,10010,40.74367565,-73.9893707
K S Art,(212) 219-9918,73 Leonard St,10013,40.71764124,-74.00518748
Kahan Fine Art Galleries Ltd,(212) 861-3682,422 E 72nd St,10021,40.76682971,-73.95504393
Kaller-Kimche R Inc,(212) 288-5698,23 E 74th St,10021,40.77345637,-73.96473207
Kang Byung,(212) 734-1490,9 E 82nd St,10028,40.77867171,-73.96128971
Kapoor Galleries Inc,(212) 794-2300,40 E 78th St,10021,40.7752396,-73.96257907
Kashya Hildebrand,(212) 366-5757,531 W 25th St,10001,40.74968946,-74.00443297
Katherine Blackburne Studios,,9 Desbrosses Street,10013,40.72325271,-74.00924361
Kathryn Markel Fine Arts Inc,(212) 366-5368,529 W 20th St,10011,40.74671947,-74.00693866
Katz Steven,(212) 505-8815,32 Union Sq,10001,40.73552236,-73.98920391
Keats R Stuart,(212) 696-5728,120 E 36th St,10016,40.74776391,-73.97949841
Keith Copley Gallery,(212) 216-0614,545 W 34th St,10001,40.75569251,-74.00074259
Keith de Lellis Gallery,(212) 327-1482,1045 MADISON AVENUE,10075,40.77664162,-73.96155652
Kelly June Gallery,(212) 226-1660,591 Broadway,10012,40.72507391,-73.99753865
Kem Art Studio,(212) 929-9017,80 5TH AVE RM 1506,10011,40.73593099,-73.99409339
Kempner Jim Fine Art,(212) 206-6872,501 W 23rd St,10011,40.74796363,-74.00425507
Kenkeleba Gallery,(212) 674-3939,214 E 2nd St,10009,40.72203677,-73.98286541
Kent Gallery,(212) 627-3680,541 West 25th Street,10001,40.74986992,-74.00473858
Kentler International Drawing Space,(718) 875-2098,353 Van Brunt Street,11231,40.67694141,-74.01299286
Keogh & Riehlman Fine Art,(212) 879-2545,24 E 73rd St,10021,40.77253251,-73.96541796
Keya Gallery,(212) 366-9742,14 Wall Street,10005,40.70762945,-74.01076961
Kim Foster Gallery,(212) 229-0044,529 W 20th St,10011,40.74654934,-74.00686533
Kind Phylis Gallery,(212) 925-1200,236 West 26th Street,10001,40.74652399,-73.99586876
King David Art Gallery,(212) 727-9700,128 West 23rd Street,10011,40.74315985,-73.99400408
"Kinz, Tillou + Feigen",(212) 929-0500,529 West 20th Street,10011,40.7466394,-74.00701008
Klagsbrun Nicole Gallery,(212) 243-3335,526 W 26th St,10001,40.7499731,-74.00433593
Klotz Sirmon Gallery,(212) 741-4764,511 W 25th St,10001,40.74962416,-74.00395717
Kokon Inc,(212) 744-5577,58 E 66th St,10021,40.76744319,-73.9674822
Kraus Carole Ltd,(646) 522-9858,330 W 38th St,10018,40.7552543,-73.9935019
Kraushaar Galleries,(212) 307-5730,74 E 79th St,10075,40.77564019,-73.96115441
Kravets Wehby,(212) 352-2238,521 W 21st St,10011,40.74710853,-74.00604109
Kravets Wehby Gallery,(212) 352-2238,521 W 21st St,10011,40.74707249,-74.00627468
Krienke Kendra,(212) 580-6516,230 Central Park W,10024,40.78367572,-73.97094199
L A Cotton,(212) 838-6390,645 Madison Ave,10001,40.76390488,-73.97082633
La Belle Epoque Vintage Posters Inc,(212) 362-1770,280 Columbus Ave,10023,40.77838511,-73.97835368
Lally J J & Co,(212) 371-3380,41 E 57th St,10022,40.76247459,-73.97193281
Lamontage,(212) 989-2732,210 11th Ave,10001,40.74995615,-74.00587275
Landy Fine Art,(212) 505-3702,264 E Broadway,10002,40.71492376,-73.98517984
Langotsky Gamba,(212) 675-0761,537 Greenwich St,10013,40.7270818,-74.00861745
Lehman College - Art Gallery,(718) 960-7830,250 Bedford Park Blvd West,10468,40.87458975,-73.89291006
Lehmann Maupin,(212) 965-0753,540 W 26th St,10001,40.75019805,-74.00481382
Lelong Galerie,(212) 315-0470,526 W 26th St,10001,40.75004374,-74.00419548
Lemmons Durham Contemporary Art,(212) 337-0025,210 11th Ave,10001,40.74986484,-74.00593617
Lennon Weinberg Inc,(212) 941-0012,514 W 25th St,10001,40.74911049,-74.00412151
Leo Castelli Gallery,(212) 249-4470,18 E 77th St,10021,40.7750123,-73.96371065
Leo Kaplan Modern Ltd,(212) 872-1616,114 E 57th St,10022,40.76109138,-73.97007752
Leo Koenig Inc,(212) 334-9255,545 West 23rd Street,10011,40.74887767,-74.00588392
Leon Tovar Gallery,(212) 585-2400,16 E 71st St,10021,40.77112199,-73.96652982
Leslie-Lohman Gay Art Foundation,(212) 673-7007,131 Prince St,10012,40.72565728,-74.0002743
Levin Betty,(212) 355-5370,41 E 57th St,10022,40.76240336,-73.97198517
Levine Elizabeth & Assocs,(212) 874-5334,565 W End Ave,10024,40.78986636,-73.97752234
Lewitt Fine Art Gallery,(212) 628-0918,16 E 79th St,10021,40.77635843,-73.96271301
Lexington Art & Frame Co,(212) 319-3724,832 Lexington Ave,10021,40.76517409,-73.96626234
Limner Gallery,(212) 725-0999,870 Avenue of the Americas,10001,40.74758822,-73.98905874
Decor Art Gallery,(212) 683-9729,551 3rd Ave,10016,40.74722503,-73.9766441
Decor Art Gallery Inc,(212) 481-3728,353 3rd Ave,10010,40.74042555,-73.98154386
Decor Art Gallery Inc,(212) 604-9864,158 7th Ave,10011,40.74199628,-73.99753555
Decor Art Gallery VII+,(212) 673-1366,222 3rd Ave,10003,40.73636204,-73.98527373
Deitch Projects,(212) 343-7300,76 Grand St,10013,40.72203364,-74.00256827
Demirjian Torkom,(212) 772-3388,970 Madison Ave,10021,40.77424074,-73.96384991
Demu Gallery,(718) 596-8484,761 Fulton St,11217,40.68639582,-73.9740749
Denise Bibro Fine Art,(212) 647-7030,529 W 20th Street,10011,40.74677236,-74.00695182
Dennis De Lorenzo Gallery,(212) 754-9084,21 E 62nd St,10021,40.76581474,-73.97027929
Derek Eller Gallery,(212) 206-6411,15 W 27th St,10001,40.74450714,-73.98825307
Dickinson Roundell Inc,(212) 772-8083,19 E 66th St,10021,40.7682544,-73.96854541
Dollhaus,(718) 384-6139,37 Broadway,11211,40.71084128,-73.96730076
Donson Theodore B Ltd,(212) 245-7007,24 W 57th St,10019,40.76332076,-73.97573603
Dorfman Projects,(212) 352-2272,529 W 20th St,10011,40.74671947,-74.00682775
Dorsky Carol,(212) 327-0750,20 E 74th St,10021,40.77303693,-73.9649229
Doug Meyer Fine Art,(718) 375-8006,1775 E 34th St,11234,40.61278272,-73.93693176
Downtown Arts Festival,(212) 243-5050,114 Fulton St,10038,40.70981333,-74.00737811
Downtown Music Gallery,(212) 473-0043,13 Monroe Street,10002,40.71165385,-73.99592592
Dranoff Fine Art,(212) 966-0153,591 Broadway,10012,40.72499658,-73.99738556
Dresden Art Galries,(212) 695-6250,401 7 Avenue,10001,40.74975506,-73.99099244
DUMBO Arts Center,(718) 694-0831,30 Washington St,11201,40.7034732,-73.98981275
Duncan Ligoa,(212) 988-3110,22 E 72nd St,10021,40.77169855,-73.96590831
E Art Group,(212) 931-6690,224 W 30th St,10001,40.74883453,-73.99390782
Eastern Arts Inc,(212) 366-5385,68 Jane St,10014,40.73799489,-74.00670811
Edward Thorp Gallery,(212) 691-6565,210 11th Ave,10001,40.74981056,-74.00608115
Edwynn Houk Gallery,(212) 750-7070,745 5th Ave,10151,40.76341083,-73.97334239
Eileen Walters Gallery,(212) 362-4300,411 West End Ave,10024,40.78498335,-73.98109485
Elga Wimmer,(212) 206-0006,526 W 26th St,10001,40.75010231,-74.00432687
Elizabeth Dee Gallery,(212) 924-7545,545 West 20th Street,10011,40.7468852,-74.00753313
Elizabeth Harris Gallery,(212) 463-9666,529 W 20th St,10011,40.74657937,-74.00677134
Elizabeth Mayer Fine Art,(212) 879-1241,55 E 73rd St,10021,40.77222815,-73.96383795
Elizabeth Moore Fine Art,(212) 744-8177,963 Lexington Ave,10021,40.76910952,-73.96285621
Elizabeth Wang Gallery,(212) 752-4881,800 5th Ave,10021,40.76559751,-73.97162703
Elkon Gallery Inc,(212) 535-3940,18 E 81st St,10028,40.7777238,-73.96186682
Elliot Stevens Ltd,(212) 355-8333,301 Park Ave,10022,40.7565026,-73.97334597
Emily Harvey Gallery,(212) 925-7651,537 Broadway,10012,40.72350584,-73.99900175
Environment Home Furnshngs Inc,(212) 688-5880,205 E 60th St,10022,40.76208203,-73.96555408
Equatorial America Inc,(212) 593-3306,411 E 53rd St,10022,40.7557595,-73.96424712
Equitable Appraisal Co Inc,(212) 535-3160,19 E 75th St,10021,40.77397695,-73.96428936
Equity Art Brokers,(212) 593-3188,340 E 52nd St,10022,40.75528418,-73.9661194
Equity Art Brokers,(212) 620-7604,40 W 25th St,10010,40.74367716,-73.99114641
Erotics Gallery,(212) 633-2241,41 Union Sq W,10003,40.73707046,-73.99057186
Esso Gallery,(212) 560-9728,531 W 26th St,10001,40.75024969,-74.00381837
Exhibit A,(212) 343-0230,160 Mercer St,10012,40.72505669,-73.99769215
Exit Art,(212) 966-7745,475 10th Ave,10018,40.75624293,-73.99850449
Exotiqa II,(212) 721-4394,280 City Island Ave,10464,40.84660712,-73.78597885
Eye Jammie Fine Arts Gallery,(212) 645-0061,516 W 25th St,10001,40.74926699,-74.00430836
Eyebeam Atelier,(212) 937-6580,540 W 21st St,10011,40.74698648,-74.0070564
Ezair Gallery,(212) 628-2224,905 Madison Ave,10021,40.77214609,-73.96488957
Faith Art Gallery Corp,(718) 596-4659,393 Bridge St,11201,40.69145797,-73.98502184
Feature Inc,(212) 675-7772,530 W 25th St,10001,40.74938528,-74.00465743
Fields Walter,(212) 477-7159,208 E 7th St Ofc,10009,40.72434453,-73.97999416
Fifty-Five Mercer Gallery,(212) 226-8513,55 Mercer St,10013,40.72199019,-74.00122059
Findlay David Galleries,(212) 249-2909,1202 Lexington Ave,10028,40.77671113,-73.95786468
Findlay David Jr Fine Art,(212) 486-7660,41 E 57th St,10022,40.76231666,-73.97174887
Findlay Peter Gallery,(212) 644-4433,41 E 57th St,10022,40.76223773,-73.97180039
Fine Art Acquisitions,(212) 431-3744,122 Spring St,10012,40.72359332,-74.00029974
Fine Art Alacarte,(212) 766-4954,89 South Street,10001,40.70636686,-74.00380156
Fine Art Services & Transport,(718) 784-9399,48-75 37th St,11101,40.73823239,-73.92883941
First Street Gallery,(646) 336-8053,526 W 26th St,10001,40.74996793,-74.00443447
Fischbach Gallery,(212) 759-2345,210 Eleventh Ave.,10001,40.74989671,-74.00602113
Flushing Art Gallery,(718) 445-6748,3711 Main St,11354,40.76141732,-73.83041138
Focal Point Gallery,(718) 885-1403,321 City Island Ave,10464,40.84756078,-73.78685976
Folin Riva Inc,(212) 242-3434,535 W 20th St,10011,40.74660509,-74.00707399
Folklorica,(212) 750-6765,12 E 53rd St,10022,40.75983435,-73.97503919
Forbes Magazine Galleries,(212) 206-5548,60 Fifth Avenue,10011,40.73502191,-73.99479483
Forrest Scott Group,(212) 274-8100,270 Lafayette St,10012,40.72397526,-73.99647309
Fortress Fae Worldwide,(718) 786-9418,4920 5th St,11101,40.74335663,-73.95653685
Fortress Ny,(718) 937-5500,4920 5th St,11101,40.74338983,-73.95672413
Fortuna Fine Arts Ltd,(212) 794-7272,984 Madison Ave,10021,40.77485986,-73.96344115
Forum Gallery,(212) 355-4545,745 5th Ave,10151,40.76329345,-73.97342331
Fowa Enterprises Corp,(212) 571-3838,17 E Broadway,10002,40.71331565,-73.99701259
Franklin Bowles Galleries,(212) 226-1616,431 W Broadway,10012,40.72526683,-74.00094987
Franklin Parrasch Gallery,(212) 246-5360,20 W 57th St,10019,40.76337208,-73.97543422
Frederick Schultz Ancient Art,(212) 721-6007,325 W 82nd St,10024,40.78690228,-73.98069884
Fredericks Freiser Gallery,(212) 633-6555,504 W. 22nd St.,10011,40.74706889,-74.00519619
Frederieke Taylor Gallery,(646) 230-0992,535 W 22nd St,10011,40.74784537,-74.0062383
Frei-Nathan Susan Fine Works On Paper Llc,(212) 517-8878,245 E 80th St,10021,40.77433136,-73.95473116
Friedman Vallois Llc,(212) 517-3820,27 E 67th St,10021,40.7685893,-73.96744386
Friedrich Petzel Gallery,(212) 680-9467,535 W. 22nd St.,10011,40.74785399,-74.00609559
Frielich Bros-Deutsch Bros,(212) 777-3051,670 Broadway,10012,40.72722478,-73.99481412
Friends of Bezalel Academy,(212) 687-0542,501 5th Ave,10017,40.75313967,-73.98073127
Fulton Plaza,(212) 835-8600,106 Fulton St,10038,40.70958977,-74.00704683
Fulton St Art Gallery,(212) 587-5984,116 John St,10038,40.70746874,-74.00589066
G P L Promotions Ltd,(212) 684-1066,220 Madison Ave,10016,40.74955564,-73.98207161
Gagosian Gallery Chelsea,(212) 741-1111,555 W 24th St,10011,40.74908344,-74.00539201
Gagosian Gallery Uptown,(917) 432-1471,980 Madison Ave,10021,40.77483506,-73.96358045
Galerie Des Arts Ltd,(212) 861-7925,18 E 76th St,10021,40.77441872,-73.96420493
Galerie Thomas,(212) 675-7296,41 Perry St,10014,40.73581223,-74.00283704
Galleria On Third,(212) 683-2886,529 3rd Ave,10016,40.74640198,-73.97718802
Galleria Ramis Barquet Ny Ltd,(212) 644-9090,41 E 57th St,10022,40.76241422,-73.97179188
Gallery 151,(212) 675-5311,350 Bowery,10012,40.72674329,-73.99204714
Gallery 292,(212) 431-0292,120 Wooster St,10012,40.72505116,-74.00008646
Gallery 49,(917) 915-6369,310 W 49th St,10019,40.76183839,-73.98751492
Gallery 71 Inc,(212) 744-7779,974 Lexington Ave,10021,40.76963622,-73.96299599
Gallery 91,(212) 966-3722,91 Grand St,10013,40.72140577,-74.00215738
Gallery at the American Bible Society,(212) 408-1500,1865 Broadway,10023,40.77025398,-73.98273876
Gallery at the New York School of Interior Design,(212) 472-1500,170 E. 70th St.,10021,40.76856417,-73.96246363
Gallery Bai Inc,(212) 947-4142,520 W 43rd St,10036,40.76059646,-73.99627932
Gallery Henoch,(917) 305-0003,555 W 25th St,10001,40.75012695,-74.00526086
Gallery of Ireland,(718) 458-2960,3931 50th Street,11377,40.74795987,-73.91369901
Gardner & Barr Inc,(212) 752-0555,305 E 61th St,10065,40.76174806,-73.96278276
Garth Clark Gallery,(212) 246-2205,24 W 57th St,10019,40.76328542,-73.97564541
Garth Clark Gallery's Project Space,(718) 706-2491,4546 21st St,11101,40.74618054,-73.94831899
Gasser & Grunert,(212) 807-9494,524 W 19th St,10011,40.74558378,-74.0073622
Gavin Brown's Enterprise Corp,(212) 627-5258,620 Greenwich St,10014,40.73054991,-74.00859302
Generous Miracles Space Ltd,(212) 352-2858,529 W 20th St,10011,40.74669373,-74.00701009
George Adams Gallery,(212)-564-8480,525 West 26th Street,10001,40.75025399,-74.00402678
George Billis Gallery,(212) 645-2621,555 W 25th St,10001,40.75007756,-74.00542748
Geos Art Gallery and Tuxedos,(718) 276-6215,20019 119th Ave,11412,40.69203361,-73.7506114
Gerold Wunderlich & Co,(212) 974-8444,50 W 57th St,10019,40.76374157,-73.97659531
Gian Enzo Sperone,(212) 255-7363,603 Greenwich St,10014,40.72978029,-74.00803261
Giraud Pissarro Segalot,(212) 988-9171,132 E 70th St,10021,40.76906697,-73.96355105
Gleason Tim Gallery,(212) 966-5777,194 Elizabeth St,10012,40.7217016,-73.99427302
Global Passages Inc,(212) 759-5669,205 E 60th St,10022,40.76214537,-73.96551116
Godel & Co Inc,(212) 288-7272,39 E 72nd St,10021,40.77181139,-73.96478601
Goedhuis Contemporary Ltd,(212) 535-6954,42 E 76th St,10021,40.77396711,-73.96297173
Goethe-Institut Wyoming Building,212-439-8700,5 East 3rd Street,10003,40.72634319,-73.99111875
Golden Caren Fine Arts,(212) 727-8304,526 W 26th St,10001,40.75008938,-74.0045047
Goodman James Gallery,(212) 593-3737,41 E 57th St,10022,40.76227754,-73.97187972
Grant Gallery,(646) 479-8815,7 Mercer St,10013,40.72044661,-74.00244284
Great Modern Pictures,(212) 242-2581,EMPIRE STATE BUILDING,10001,40.74843275,-73.98565422
Greeley Square Gallery,(212) 868-6610,32 W 31st St,10001,40.74704275,-73.98769078
Green Essie Galleries Inc,(212) 368-9635,419 Convent Ave,10031,40.82638148,-73.94466951
Greene Naftali Inc,(212) 463-7770,526 W 26th St,10001,40.75003598,-74.0043835
Greene Space Gallery,(212) 431-8720,105 Greene St,10012,40.72450899,-74.00004007
Littlejohn Contemporary Art,(212) 980-2323,41 E 57th St,10022,40.76233983,-73.97203416
Lizan Tops Associates,(212) 534-3316,8 E 92nd St,10128,40.7849199,-73.95713277
Lladro Museum & Collector's Society,(212) 838-9352,43 W 57th St,10019,40.76412964,-73.97625732
Lladro USA,(212) 838-9771,43 W 57th St,10019,40.76421069,-73.97619602
Location One,(212) 334-3347,26 Greene St.,10013,40.72098729,-74.00246503
Lombard-Fried Fine Arts Inc,(212) 967-8040,531 W 26th St,10001,40.75032119,-74.00376627
Long Fine Art,(212) 337-1940,427 W 14th St,10014,40.74172005,-74.00645063
Lower Manhattan Cultural Council,(212) 219-9401,125 Maiden Lane,10038,40.70660442,-74.00625208
Lublin Mary Fine Arts,(212) 570-0319,954 Lexington Avenue,10021,40.76897164,-73.96345944
Lucas Schoormans Gallery,(212) 243-3159,508 W. 26th St.,10001,40.74976146,-74.00374214
Ludlow 38,(212) 228-6848,38 Ludlow Street,10002,40.71607367,-73.99014614
Luhring Augustine Gallery Inc,(212) 206-9100,531 W 24th St,10011,40.74910894,-74.0051018
Lumbard Jean,(212) 996-4484,17 E 96th St,10128,40.78759697,-73.95437532
Lun Yee Assn,(212) 431-9497,167 Canal St,10013,40.71679772,-73.99696834
Lunarbase Inc,(718) 599-9205,197 Grand St,11211,40.71427465,-73.96034432
Lurie Tamar & Ranan,(212) 888-4866,721 5th Ave,10022,40.762467,-73.97398762
M & R Sayer Fine Art Llc,(212) 517-8811,129 E 71st St,10021,40.77012253,-73.96305316
M K J Art Gallery,(212) 481-7447,214 E 23rd St,10010,40.73819666,-73.98242013
MacCarone Inc,(212) 431-4977,630 Greenwich Street,10014,40.73093144,-74.0084803
Malcolm Christian T Fine Arts Managemnt Svc,(212) 947-3835,227 W 29th St,10001,40.74846917,-73.99402296
Manhattan Art,(212) 736-3336,13 W 36th St,10018,40.75031251,-73.9844838
Mansion Gracie Gallery,(212) 505-7055,101 Second Avenue,10003,40.72740796,-73.98886924
Marbella Gallery,(212) 288-7809,28 E 72nd St,10021,40.77144369,-73.965305
Marc Jancou Contemporary,(212) 473-2100,680 Broadway,10012,40.72749292,-73.99458298
Marc Jancou Fine Art Ltd,(212) 717-1700,801 Madison Ave,10021,40.76877056,-73.96727019
Marcus Curt Gallery Inc,(212) 226-3200,2 5th Ave,10011,40.73199551,-73.99703426
Margaret Thatcher Projects,(212) 675-0222,539 West 23rd Street,10011,40.74850268,-74.00548674
Margo Feiden Galleries Ltd,(212) 677-5330,15 E 9th St,10003,40.73257492,-73.99482129
Marian Goodman Gallery,(212) 977-7160,24 W 57th St,10019,40.76338707,-73.97568502
Marianne Boesky Gallery,(212) 680-9889,509 West 24th Street,10011,40.74883917,-74.00424042
Marie Walsh Sharpe Art Foundation Art,(212) 925-3008,443 Greenwich St,10013,40.72321957,-74.00938295
Markey Lawrence Inc,(212) 517-9892,42 E 76th St,10021,40.77388979,-73.9630306
Marlborough Gallery,(212) 397-0317,40 W 57th St,10019,40.7635578,-73.97630725
Martin Lawrence Galleries,(212) 995-8865,457 W Broadway,10012,40.726129,-74.00024343
Martinez Gallery,(212) 563-1075,515 W 27th St,10001,40.75078087,-74.0030963
Mary Boone Gallery,(212) 752-2929,745 5th Ave,10151,40.76335676,-73.97320639
Mary Ryan Gallery,(212) 397-0669,24 W. 57th St.,10019,40.76334399,-73.97559554
Master Drawing Assoc,(718) 573-1299,669 Monroe St,11221,40.68805924,-73.92992226
Master Framemakers,(212) 308-6152,219 East 60th Street,10022,40.761933,-73.96508959
Mathes Barbara Gallery,(212) 570-4190,22 E 80th St,10075,40.77696659,-73.96216484
Matthew Marks Gallery - 22nd St.,(212) 243-1650,522 W 22nd St.,10011,40.74729741,-74.00589658
Matthew Marks Gallery - 24th St.,(212) 243-0200,523 W. 24th St.,10011,40.74897108,-74.00474728
Max Protetech Gallery,(212) 633-6999,511 W 22nd St,10011,40.74749803,-74.00529719
Maxwell Davidson Gallery,(212) 759-7555,724 5th Ave,10019,40.76264197,-73.97461594
Mc Dougal A,(212) 874-2172,98 Riverside Dr,10024,40.78655119,-73.98091304
McCarron Paul Fine Prints & Drawings,(212) 772-1181,1014 Madison Ave,10021,40.77592685,-73.96278657
McGinnis Cheryl Gallery,(212) 594-4066,555 Eighth Avenue,10024,40.75467997,-73.99214583
McKee Gallery,(212) 688-5951,745 Fifth Ave.,10151,40.76323752,-73.97329467
McKenzie Fine Art Inc,(212) 989-5467,511 W 25th St,10001,40.74943639,-74.00377141
Medialia Corp,(212) 971-0953,335 W 38th St,10018,40.75559932,-73.99314536
Mehu Gallery,(212) 222-3334,21 W 100th St,10025,40.79479918,-73.96368099
Meisel Louis K Gallery,(212) 677-1340,141 Prince St,10012,40.72569434,-74.00047928
Meisel Susan P Decorative Arts,(212) 254-0137,141 Prince St,10012,40.72576887,-74.00042049
Merrin Gallery,(212) 757-2884,724 5th Ave,10019,40.76275397,-73.97468953
Merton Simpson Gallery Inc,(212) 686-6735,38 W 28th St,10001,40.7454474,-73.98965866
Messineo Atr Projects,(212) 414-0827,227 West 29th Street,10001,40.74859961,-73.99393229
Metro Art,(718) 326-4102,7823 Metropolitan Ave,11379,40.71335896,-73.87450325
Metro Art and Frame,(718) 432-0632,585 W 235th St,10463,40.88604954,-73.91115651
Metro Pictures,(212) 206-7100,519 W 24th St,10011,40.74895493,-74.00459373
Miakey Art Gallery,(718) 686-0788,5402 7th Ave,11220,40.64025482,-74.00855558
Michael Werner Gallery,(212) 988-1623,4 E. 77th St.,10021,40.77524709,-73.96426209
Michail- Lombardo Gallery,(212) 472-2400,829 Madison Ave,10021,40.76984146,-73.96654242
Michel Soskine Inc,(212) 988-2050,900 Park Ave,10021,40.77611498,-73.96069064
Michelle Rosenfeld Gallery,(212) 734-0900,16 E 79th St,10021,40.77625969,-73.96278905
Miele Frank J Gallery,(212) 249-7250,1086 Madison Ave,10028,40.77816985,-73.96106462
Miller Geisler Gallery Llc,(212) 255-2885,511 W 25th St,10001,40.74952855,-74.00402626
Miller Laurence Gallery Inc,(212) 397-3930,20 W 57th St,10019,40.76323165,-73.97553262
Mimi Ferzt Inc,(212) 343-9377,81 Greene St,10012,40.72369075,-74.00074603
Minetta Brook Inc,(212) 431-7165,105 Hudson St,10001,40.7194907,-74.00901738
Mip Art Realty Inc,(212) 431-9474,83 Mercer St,10012,40.72296988,-74.0002835
Mitchell Algus Gallery,(212) 242-6242,511 W 25th St,10001,40.74953975,-74.00378614
Mitchell-Innes & Nash,(212) 744-7400,1018 Madison Ave,10021,40.77599315,-73.96257961
Mixed Greens Gallery,(212) 331-8888,531 W 26th St,10001,40.75030913,-74.0038784
Mobile Concept Inc,(718) 353-6600,3655 Main St,11354,40.76192417,-73.83095587
Modern Art & Framing,(212) 307-7391,877 7th Ave,10019,40.76455537,-73.98032204
Moeller Achim Fine Art Ltd,(212) 644-2133,36 E 64th St,10065,40.76627437,-73.96863603
Momenta Art Gallery,(718) 218-8058,359 Bedford Ave,11211,40.71150042,-73.96295355
Monalisa Art Gallery,(212) 722-4989,1758 1st Ave,10128,40.78010875,-73.94665138
Montserrat Gallery Inc,(212) 941-8899,584 Broadway,10012,40.7247167,-73.99692952
Mooney Robert J Arts Management,(718) 852-9080,174 Pacific St,11201,40.68908922,-73.99361475
Morales David,(212) 564-2335,325 W 38th St,10018,40.75539588,-73.99280898
Morgan Art Consulting,(212) 447-0490,303 Park Avenue South,10010,40.7402545,-73.98578003
Morning Star Gallery Ltd,(212) 334-9330,9809 64th Rd,11374,40.72992529,-73.85783326
Naegele Amyas Bases & African Art,(212) 465-0524,347 W 36th St,10018,40.7544864,-73.99433591
Naiman Lee Fine Art,(212) 362-4090,300 Central Park W,10024,40.78834442,-73.96767395
Nancy Hoffman Gallery Inc,(212) 966-6676,429 W Broadway,10012,40.72518023,-74.0010241
Nancy Margolis Gallery Inc,(212) 242-3013,523 W 25th Street,10001,40.74964656,-74.00418365
Natalie Karg Ltd,(212) 563-7821,325 W 38th St,10018,40.75533811,-73.99266563
Nathaniel Moore Llc,(212) 965-9500,121 Hudson St,10013,40.72031106,-74.00886383
Navarra Enrico,(212) 223-2828,41 E 57th St,10022,40.76250348,-73.97200032
Neal Meltzer Fine Arts,(212) 829-9800,600 Madison Ave,10022,40.76294039,-73.97241955
Neikrug Marjorie Appraisals,(212) 688-8779,136 E 64th St,10021,40.76536882,-73.96625979
Neuhoff Gallery Inc,(212)  838-1122,41 E 57th St,10022,40.7624329,-73.97205775
New Dorp Village Antiques Ltd,(718) 815-2526,517 Broadway,10310,40.62843293,-74.11581755
New York Art Expo Inc,(212) 363-8280,3 Hanover Sq,10004,40.70500032,-74.00960786
New York Art Gallery,(212) 396-0275,1626 1st Ave,10028,40.77582842,-73.9497534
New York Gallery Tours,(212) 946-1548,82 Charles St,10014,40.73459524,-74.00394434
Nexus Gallery Inc,(212) 982-4712,345 E 12th St,10003,40.73042494,-73.98394512
Nohra Haime Gallery,(212) 888-3550,41 East 57th Street,10022,40.76237002,-73.9721042
Nolan Eckman Gallery,(212) 925-6190,560 Broadway,10012,40.72397829,-73.9977399
Northstar Research Associates Inc,(212) 721-7000,215 W 88th St,10024,40.78956299,-73.97484366
Nyabinghi Africian Gift Shop,(212) 566-3336,111 Chambers St,10007,40.71523507,-74.00815285
O J Art Gallery,(212) 420-0417,446 Ave of the Americas,10011,40.73488847,-73.9982901
O.K. Harris Gallery,(212) 431-3600,383 W. Broadway,10012,40.72368862,-74.00207056
Object-Image,(718) 623-2434,91 5th Ave,11217,40.67984871,-73.97789833
Oditi Inc,(212) 427-5885,1500 Lexington Ave,10029,40.78636482,-73.95084961
Odyssia Gallery,(212) 486-7338,305 E 61st St,10021,40.76187475,-73.96269814
Old Print Shop Inc,(212) 683-3950,150 Lexington Ave,10016,40.74367322,-73.98194844
Omniguard Art Guarantee,(212) 577-9000,115 Broadway,10006,40.70893881,-74.01147224
One Twenty Eight,(212) 674-0244,128 Rivington St,10002,40.71980652,-73.98691303
Opera Gallery,(212) 966-6675,115 Spring St,10012,40.72381494,-73.99994844